NORAD_CAT_ID,OBJECT_NAME,OBJECT_TYPE,EPOCH,MEAN_MOTION,ECCENTRICITY,INCLINATION,RA_OF_ASC_NODE,ARG_OF_PERICENTER,MEAN_ANOMALY,BSTAR,MEAN_MOTION_DOT,MEAN_MOTION_DDOT,TLE_LINE0,TLE_LINE1,TLE_LINE2,SEMIMAJOR_AXIS,PERIOD,APOGEE,PERIGEE,DECAYED
53746.0,STARLINK-4589,PAYLOAD,2022-11-18 06:00:00,15.08822475,0.0001829,53.215,284.5637,53.5202,188.1853,0.00155,0.00024455,0.0,0 STARLINK-4589,1 53746U 22107AY  22322.25001157  .00024455  00000-0  15500-2 0  9992,2 53746  53.2150 284.5637 0001829  53.5202 188.1853 15.08822475 11520,6917.934,95.439,541.064,538.534,0.0
53746.0,STARLINK-4589,PAYLOAD,2022-11-18 14:00:01,15.08878257,0.0001759,53.2164,283.0711,51.4805,201.8037,-0.0042606,-0.00067532,0.0,0 STARLINK-4589,1 53746U 22107AY  22322.58334491 -.00067532  00000-0 -42606-2 0  9990,2 53746  53.2164 283.0711 0001759  51.4805 201.8037 15.08878257  1301,6917.763000000001,95.435,540.845,538.4119999999998,0.0
53746.0,STARLINK-4589,PAYLOAD,2022-11-18 22:00:00,15.088204199999998,0.0001574,53.2147,281.5692,59.6091,205.272,0.00097653,0.00015279,0.0,0 STARLINK-4589,1 53746U 22107AY  22322.91667824  .00015279  00000-0  97653-3 0  9998,2 53746  53.2147 281.5692 0001574  59.6091 205.2720 15.08820420  1301,6917.94,95.439,540.894,538.716,0.0
53746.0,STARLINK-4589,PAYLOAD,2022-11-19 14:00:01,15.08852506,0.0001646,53.2155,278.5766,54.8862,233.159,-0.00096493,-0.00015617,0.0,0 STARLINK-4589,1 53746U 22107AY  22323.58334491 -.00015617  00000-0 -96493-3 0  9992,2 53746  53.2155 278.5766 0001646  54.8862 233.1590 15.08852506  1306,6917.842,95.437,540.846,538.568,0.0
53746.0,STARLINK-4589,PAYLOAD,2022-11-19 22:00:00,15.08859554,0.0001623,53.2163,277.0797,60.6725,238.9696,0.00033448,5.042e-05,0.0,0 STARLINK-4589,1 53746U 22107AY  22323.91667824  .00005042  00000-0  33448-3 0  9998,2 53746  53.2163 277.0797 0001623  60.6725 238.9696 15.08859554  1301,6917.821,95.436,540.808,538.563,0.0
53746.0,STARLINK-4589,PAYLOAD,2022-11-20 06:00:00,15.088402,0.0001776,53.2163,275.5849,52.7909,258.476,-0.00047816,-7.890000000000001e-05,0.0,0 STARLINK-4589,1 53746U 22107AY  22324.25001157 -.00007890  00000-0 -47816-3 0  9996,2 53746  53.2163 275.5849 0001776  52.7909 258.4760 15.08840200 11822,6917.88,95.438,540.9730000000002,538.516,0.0
53746.0,STARLINK-4589,PAYLOAD,2022-11-20 14:00:01,15.08834064,0.00017,53.2162,274.087,55.4065,267.4556,-0.0019713,-0.0003152,0.0,0 STARLINK-4589,1 53746U 22107AY  22324.58334491 -.00031520  00000-0 -19713-2 0  9993,2 53746  53.2162 274.0870 0001700  55.4065 267.4556 15.08834064  1305,6917.899,95.438,540.94,538.587,0.0
53746.0,STARLINK-4589,PAYLOAD,2022-11-20 22:00:00,15.0883182,0.0001742,53.2164,272.5903,60.9886,273.443,0.00043373,6.620000000000001e-05,0.0,0 STARLINK-4589,1 53746U 22107AY  22324.91667824  .00006620  00000-0  43373-3 0  9990,2 53746  53.2164 272.5903 0001742  60.9886 273.4430 15.08831820  1300,6917.905,95.438,540.975,538.565,0.0
53746.0,STARLINK-4589,PAYLOAD,2022-11-21 08:00:01,15.08817732,0.0001886,53.2164,270.7213,52.5877,26.3292,0.0033334,0.00053131,0.0,0 STARLINK-4589,1 53746U 22107AY  22325.33334491  .00053131  00000-0  33334-2 0  9992,2 53746  53.2164 270.7213 0001886  52.5877  26.3292 15.08817732 11993,6917.948,95.439,541.118,538.509,0.0
53746.0,STARLINK-4589,PAYLOAD,2022-11-21 14:00:01,15.08855533,0.0001788,53.2167,269.5975,56.6113,300.9975,-0.00084535,-0.00013723,0.0,0 STARLINK-4589,1 53746U 22107AY  22325.58334491 -.00013723  00000-0 -84535-3 0  9994,2 53746  53.2167 269.5975 0001788  56.6113 300.9975 15.08855533  1300,6917.833000000001,95.437,540.935,538.461,0.0
53746.0,STARLINK-4589,PAYLOAD,2022-11-21 22:00:00,15.08859411,0.000177,53.217,268.101,59.2581,309.9555,-0.0014767,-0.00023726,0.0,0 STARLINK-4589,1 53746U 22107AY  22325.91667824 -.00023726  00000-0 -14767-2 0  9993,2 53746  53.2170 268.1010 0001770  59.2581 309.9555 15.08859411 12087,6917.821,95.436,540.911,538.462,0.0
53746.0,STARLINK-4589,PAYLOAD,2022-11-22 14:00:01,15.08840486,0.0001715,53.2174,265.1081,54.864,337.6241,-0.001428,-0.00022943,0.0,0 STARLINK-4589,1 53746U 22107AY  22326.58335648 -.00022943  00000-0 -14280-2 0  9993,2 53746  53.2174 265.1081 0001715  54.8640 337.6241 15.08840486  1307,6917.879,95.438,540.93,538.557,0.0
53746.0,STARLINK-4589,PAYLOAD,2022-11-22 22:00:00,15.08845707,0.0001712,53.2177,263.6119,56.4897,347.5144,-0.00044448,-7.356e-05,0.0,0 STARLINK-4589,1 53746U 22107AY  22326.91667824 -.00007356  00000-0 -44448-3 0  9995,2 53746  53.2177 263.6119 0001712  56.4897 347.5144 15.08845707 12231,6917.863,95.437,540.9119999999998,538.544,0.0
53746.0,STARLINK-4589,PAYLOAD,2022-11-23 14:00:01,15.08819395,0.0001641,53.2179,260.6191,53.3044,13.8912,0.00079602,0.00012396,0.0,0 STARLINK-4589,1 53746U 22107AY  22327.58334491  .00012396  00000-0  79602-3 0  9998,2 53746  53.2179 260.6191 0001641  53.3044  13.8912 15.08819395  1307,6917.943,95.439,540.944,538.673,0.0
53746.0,STARLINK-4589,PAYLOAD,2022-11-23 22:00:00,15.08847034,0.0001686999999999,53.218,259.1231,55.5526,23.2108,-0.0009091,-0.0001473,0.0,0 STARLINK-4589,1 53746U 22107AY  22327.91667824 -.00014730  00000-0 -90910-3 0  9995,2 53746  53.2180 259.1231 0001687  55.5526  23.2108 15.08847034  1309,6917.859,95.437,540.891,538.557,0.0
53746.0,STARLINK-4589,PAYLOAD,2022-11-24 08:00:01,15.08847459,0.0001786,53.2176,257.2538,48.5039,134.7527,-0.00072268,-0.00011774,0.0,0 STARLINK-4589,1 53746U 22107AY  22328.33334491 -.00011774  00000-0 -72268-3 0  9994,2 53746  53.2176 257.2538 0001786  48.5039 134.7527 15.08847459 12445,6917.858,95.437,540.9580000000002,538.487,0.0
53746.0,STARLINK-4589,PAYLOAD,2022-11-24 14:00:01,15.08825152,0.0001583,53.2179,256.1303,53.1946,48.7705,-0.00019042,-3.316e-05,0.0,0 STARLINK-4589,1 53746U 22107AY  22328.58334491 -.00003316  00000-0 -19042-3 0  9995,2 53746  53.2179 256.1303 0001583  53.1946  48.7705 15.08825152  1301,6917.926,95.438,540.886,538.696,0.0
53746.0,STARLINK-4589,PAYLOAD,2022-11-24 22:00:00,15.0884424,0.0001624,53.2179,254.6345,54.2111,59.3244,-0.0012147,-0.0001957,0.0,0 STARLINK-4589,1 53746U 22107AY  22328.91667824 -.00019570  00000-0 -12147-2 0  9998,2 53746  53.2179 254.6345 0001624  54.2111  59.3244 15.08844240  1307,6917.8669999999975,95.437,540.856,538.609,0.0
53746.0,STARLINK-4589,PAYLOAD,2022-11-25 14:00:01,15.08833916,0.0001575,53.2173,251.6416,54.5366,82.1915,0.0019736,0.00031256,0.0,0 STARLINK-4589,1 53746U 22107AY  22329.58334491  .00031256  00000-0  19736-2 0  9997,2 53746  53.2173 251.6416 0001575  54.5366  82.1915 15.08833916 12632,6917.899,95.438,540.854,538.674,0.0
53746.0,STARLINK-4589,PAYLOAD,2022-11-25 22:00:00,15.0888549,0.0001633,53.2173,250.146,55.5985,92.7262,-0.003031,-0.00048264,0.0,0 STARLINK-4589,1 53746U 22107AY  22329.91667824 -.00048264  00000-0 -30310-2 0  9993,2 53746  53.2173 250.1460 0001633  55.5985  92.7262 15.08885490  1306,6917.741,95.435,540.736,538.477,0.0
53746.0,STARLINK-4589,PAYLOAD,2022-11-26 06:00:00,15.08825427,0.0001710999999999,53.2166,248.6508,48.2048,111.76,0.0034375,0.00054824,0.0,0 STARLINK-4589,1 53746U 22107AY  22330.25001157  .00054824  00000-0  34375-2 0  9995,2 53746  53.2166 248.6508 0001711  48.2048 111.7600 15.08825427 12730,6917.925,95.438,540.974,538.606,0.0
53746.0,STARLINK-4589,PAYLOAD,2022-11-26 14:00:01,15.08851771,0.0001575999999999,53.2165,247.1528,55.1645,116.4034,-0.00035617,-5.954e-05,0.0,0 STARLINK-4589,1 53746U 22107AY  22330.58334491 -.00005954  00000-0 -35617-3 0  9994,2 53746  53.2165 247.1528 0001576  55.1645 116.4034 15.08851771  1309,6917.844,95.437,540.8,538.619,0.0
53746.0,STARLINK-4589,PAYLOAD,2022-11-26 22:00:00,15.08859609,0.0001674,53.2164,245.6573,56.4877,126.6858,-0.0041384,-0.00065587,0.0,0 STARLINK-4589,1 53746U 22107AY  22330.91667824 -.00065587  00000-0 -41384-2 0  9995,2 53746  53.2164 245.6573 0001674  56.4877 126.6858 15.08859609 12836,6917.82,95.436,540.8430000000002,538.5269999999998,0.0
53746.0,STARLINK-4589,PAYLOAD,2022-11-27 14:00:01,15.08790874,0.0001717,53.2157,242.6638,57.4896,148.859,0.0019975,0.00031603,0.0,0 STARLINK-4589,1 53746U 22107AY  22331.58334491  .00031603  00000-0  19975-2 0  9991,2 53746  53.2157 242.6638 0001717  57.4896 148.8590 15.08790874  1304,6918.031,95.441,541.0830000000002,538.7080000000002,0.0
53746.0,STARLINK-4589,PAYLOAD,2022-11-27 22:00:00,15.08824982,0.0001853,53.2157,241.1685,58.1001,159.7936,-0.0010681,-0.0001724,0.0,0 STARLINK-4589,1 53746U 22107AY  22331.91667824 -.00017240  00000-0 -10681-2 0  9995,2 53746  53.2157 241.1685 0001853  58.1001 159.7936 15.08824982  1300,6917.926,95.439,541.073,538.509,0.0
53746.0,STARLINK-4589,PAYLOAD,2022-11-28 14:00:01,15.08814769,0.0001833,53.2155,238.1747,58.7203,182.3333,0.0032642,0.0005201,0.0,0 STARLINK-4589,1 53746U 22107AY  22332.58334491  .00052010  00000-0  32642-2 0  9993,2 53746  53.2155 238.1747 0001833  58.7203 182.3333 15.08814769 13084,6917.958000000001,95.439,541.091,538.554,0.0
53746.0,STARLINK-4589,PAYLOAD,2022-11-28 22:00:01,15.08857379,0.000196,53.2155,236.6793,58.1323,194.5659,-0.00090931,-0.00014738,0.0,0 STARLINK-4589,1 53746U 22107AY  22332.91668981 -.00014738  00000-0 -90931-3 0  9997,2 53746  53.2155 236.6793 0001960  58.1323 194.5659 15.08857379  1308,6917.8269999999975,95.436,541.048,538.336,0.0
53746.0,STARLINK-4589,PAYLOAD,2022-11-29 06:00:00,15.08861636,0.0001978,53.2154,235.1836,52.9499,211.2939,-0.0011207,-0.00018091,0.0,0 STARLINK-4589,1 53746U 22107AY  22333.25001157 -.00018091  00000-0 -11207-2 0  9995,2 53746  53.2154 235.1836 0001978  52.9499 211.2939 15.08861636 13182,6917.814,95.436,541.048,538.311,0.0
53746.0,STARLINK-4589,PAYLOAD,2022-11-29 14:00:01,15.088262300000002,0.0001783,53.2157,233.6852,57.026,218.9013,0.00047177,7.225e-05,0.0,0 STARLINK-4589,1 53746U 22107AY  22333.58335648  .00007225  00000-0  47177-3 0  9997,2 53746  53.2157 233.6852 0001783  57.0260 218.9013 15.08826230  1301,6917.922,95.438,541.021,538.554,0.0
